NORAD_CAT_ID,OBJECT_NAME,OBJECT_TYPE,EPOCH,MEAN_MOTION,ECCENTRICITY,INCLINATION,RA_OF_ASC_NODE,ARG_OF_PERICENTER,MEAN_ANOMALY,BSTAR,MEAN_MOTION_DOT,MEAN_MOTION_DDOT,TLE_LINE0,TLE_LINE1,TLE_LINE2,SEMIMAJOR_AXIS,PERIOD,APOGEE,PERIGEE,DECAYED
54169.0,STARLINK-5282,PAYLOAD,2024-08-14 12:06:58,15.0883917,0.0001101,53.2184,52.3062,82.1966,277.9151,0.00044173,6.749e-05,0.0,0 STARLINK-5282,1 54169U 22141N   24227.50484919  .00006749  00000-0  44173-3 0  9990,2 54169  53.2184  52.3062 0001101  82.1966 277.9151 15.08839170 99487,6917.883,95.438,540.51,538.986,0.0
54169.0,STARLINK-5282,PAYLOAD,2024-08-14 18:28:31,15.08849146,0.000107,53.2161,51.1177,82.5985,277.5129,0.00079871,0.0001245,0.0,0 STARLINK-5282,1 54169U 22141N   24227.76980832  .00012450  00000-0  79871-3 0  9992,2 54169  53.2161  51.1177 0001070  82.5985 277.5129 15.08849146 99526,6917.852,95.437,540.458,538.977,0.0
54169.0,STARLINK-5282,PAYLOAD,2024-08-15 05:36:13,15.08856303,0.0001063,53.2154,49.0364,83.9888,276.1225,0.00074269,0.00011557,0.0,0 STARLINK-5282,1 54169U 22141N   24228.23348411  .00011557  00000-0  74269-3 0  9999,2 54169  53.2154  49.0364 0001063  83.9888 276.1225 15.08856303 99593,6917.831,95.437,540.431,538.96,0.0
54169.0,STARLINK-5282,PAYLOAD,2024-08-15 18:19:17,15.08852646,0.0001289,53.2161,46.6578,84.5323,275.5816,0.00013122,1.802e-05,0.0,0 STARLINK-5282,1 54169U 22141N   24228.76340008  .00001802  00000-0  13122-3 0  9994,2 54169  53.2161  46.6578 0001289  84.5323 275.5816 15.08852646 99676,6917.842,95.437,540.598,538.815,0.0
54169.0,STARLINK-5282,PAYLOAD,2024-08-16 05:26:59,15.0885295,0.0001283,53.2162,44.5768,79.7913,280.3224,-1.8306e-05,-5.79e-06,0.0,0 STARLINK-5282,1 54169U 22141N   24229.22707593 -.00000579  00000-0 -18306-4 0  9994,2 54169  53.2162  44.5768 0001283  79.7913 280.3224 15.08852950 99743,6917.841,95.437,540.593,538.818,0.0
54169.0,STARLINK-5282,PAYLOAD,2024-08-17 11:39:19,15.08841525,0.0001352,53.2154,38.9242,94.0777,266.0369,-1.5153e-05,-5.29e-06,0.0,0 STARLINK-5282,1 54169U 22141N   24230.48563734 -.00000529  00000-0 -15153-4 0  9993,2 54169  53.2154  38.9242 0001352  94.0777 266.0369 15.08841525 99931,6917.876,95.437,540.676,538.805,0.0
54169.0,STARLINK-5282,PAYLOAD,2024-08-18 16:16:15,15.08843812,0.0001192,53.2183,33.5759,60.2077,299.9034,0.00014798,2.068e-05,0.0,0 STARLINK-5282,1 54169U 22141N   24231.67795477  .00002068  00000-0  14798-3 0  9997,2 54169  53.2183  33.5759 0001192  60.2077 299.9034 15.08843812100115,6917.869,95.437,540.558,538.909,0.0
54169.0,STARLINK-5282,PAYLOAD,2024-08-19 03:23:57,15.08770341,0.0001279,53.2163,31.4845,42.7904,317.3188,0.0011194,0.00017538,0.0,0 STARLINK-5282,1 54169U 22141N   24232.14163523  .00017538  00000-0  11194-2 0  9995,2 54169  53.2163  31.4845 0001279  42.7904 317.3188 15.08770341100184,6918.093,95.442,540.843,539.073,0.0
54169.0,STARLINK-5282,PAYLOAD,2024-08-19 19:17:49,15.08832939,0.0001803,53.22,28.5207,118.6339,241.4835,4.0849e-05,3.62e-06,0.0,0 STARLINK-5282,1 54169U 22141N   24232.80404458  .00000362  00000-0  40849-4 0  9991,2 54169  53.2200  28.5207 0001803 118.6339 241.4835 15.08832939100282,6917.902,95.438,541.014,538.52,0.0
54169.0,STARLINK-5282,PAYLOAD,2024-08-20 14:22:26,15.08844329,0.00014,53.2201,24.9534,111.2697,248.8445,3.6691e-05,2.96e-06,0.0,0 STARLINK-5282,1 54169U 22141N   24233.59892004  .00000296  00000-0  36691-4 0  9992,2 54169  53.2201  24.9534 0001400 111.2697 248.8445 15.08844329100403,6917.867,95.437,540.701,538.764,0.0
54169.0,STARLINK-5282,PAYLOAD,2024-08-20 17:33:12,15.08848817,0.000145,53.2195,24.3558,96.3025,263.8133,7.7509e-05,9.46e-06,0.0,0 STARLINK-5282,1 54169U 22141N   24233.73139687  .00000946  00000-0  77509-4 0  9994,2 54169  53.2195  24.3558 0001450  96.3025 263.8133 15.08848817100427,6917.853,95.437,540.722,538.715,0.0
54169.0,STARLINK-5282,PAYLOAD,2024-08-21 14:13:14,15.08832891,0.0001532,53.2189,20.49,86.1101,274.0066,5.445e-05,5.79e-06,0.0,0 STARLINK-5282,1 54169U 22141N   24234.59252791  .00000579  00000-0  54450-4 0  9993,2 54169  53.2189  20.4900 0001532  86.1101 274.0066 15.08832891100559,6917.902,95.438,540.827,538.707,0.0
54169.0,STARLINK-5282,PAYLOAD,2024-08-21 17:24:00,15.08837625,0.0001649,53.2185,19.8942,75.0733,285.0442,8.7629e-05,1.107e-05,0.0,0 STARLINK-5282,1 54169U 22141N   24234.72500716  .00001107  00000-0  87629-4 0  9993,2 54169  53.2185  19.8942 0001649  75.0733 285.0442 15.08837625100572,6917.888,95.438,540.893,538.612,0.0
54169.0,STARLINK-5282,PAYLOAD,2024-08-21 18:59:23,15.08841858,0.0001503,53.2183,19.5966,87.0202,273.0962,0.00015064,2.11e-05,0.0,0 STARLINK-5282,1 54169U 22141N   24234.79124460  .00002110  00000-0  15064-3 0  9996,2 54169  53.2183  19.5966 0001503  87.0202 273.0962 15.08841858100584,6917.875,95.437,540.779,538.7,0.0
